SatCatId,ObjectName,LaunchYear,OrbitalPeriod,LaunchMass,StatusCode,Inclination,Status,UcsData,OrbitClassEstimated,LaunchSiteCountry,Owner,UseType,Purpose,LaunchVehicleClass,TLE1,TLE2,MeanMotion,Eccentricity,OrbitClass
48927,LEMUR-2-AC-CUBED,2021,94.3,10.0,+,97.58,Active,1,LEO,USA,USA,Commercial,Earth Observation,Falcon,1 48927U 21059BA  23050.61389356  .00032793  00000+0  12282-2 0  9998,2 48927  97.5758 187.1446 0013701 310.4255  49.5788 15.27127132 91570,15.27127132,0.0013701,LEO
48928,PAINANI-2,2021,94.68,4.0,+,97.58,Active,1,LEO,USA,Mexico,Military,Earth Observation,Falcon,1 48928U 21059BB  23050.95300230  .00014504  00000+0  65778-3 0  9999,2 48928  97.5824 186.4360 0013447 319.6471  40.3765 15.20855915 91529,15.20855915,0.0013447,LEO
48929,LEMUR-2-MERIMA,2021,94.2,10.0,+,97.57,Active,1,LEO,USA,USA,Commercial,Earth Observation,Falcon,1 48929U 21059BC  23050.61306834  .00036248  00000+0  12954-2 0  9995,2 48929  97.5660 187.3282 0014023 310.0261  49.9747 15.28645040 91602,15.2864504,0.0014023,LEO
48930,KSF1-A,2021,94.16,10.0,+,97.57,Active,1,LEO,USA,Luxembourg,Commercial,Earth Observation,Falcon,1 48930U 21059BD  23051.57260624  .00039800  00000+0  13916-2 0  9995,2 48930  97.5721 188.4458 0012946 306.8800 116.0948 15.29351497 91759,15.29351497,0.0012946,LEO
48931,HAWK-3B,2021,94.86,15.0,+,97.57,Active,1,LEO,USA,USA,Commercial,Surveillance,Falcon,1 48931U 21059BE  23050.94628168  .00007216  00000+0  35618-3 0  9997,2 48931  97.5658 184.5395 0014482 332.2398  27.8061 15.18108082 91481,15.18108082,0.0014482,LEO
48932,SPACEBEE-92,2021,91.95,2.0,+,97.55,Active,1,LEO,USA,USA,Commercial,Communications,Falcon,1 48932U 21059BF  23051.33503542  .00392653  00000+0  35474-2 0  9991,2 48932  97.5506 194.0171 0015183 290.0665  69.8961 15.66784933 92113,15.66784933,0.0015183,LEO
48933,SPACEBEE-89,2021,91.14,2.0,+,97.54,Active,1,LEO,USA,USA,Commercial,Communications,Falcon,1 48933U 21059BG  23050.64767845  .00923961  00000+0  44008-2 0  9998,2 48933  97.5438 194.2810 0015638 295.8943  64.0712 15.80385777 92072,15.80385777,0.0015638,LEO
48934,SPACEBEE-96,2021,92.28,2.0,+,97.55,Active,1,LEO,USA,USA,Commercial,Communications,Falcon,1 48934U 21059BH  23051.35272785  .00288393  00000+0  33111-2 0  9998,2 48934  97.5524 193.4105 0016294 292.5820  67.3712 15.60962429 92073,15.60962429,0.0016294,LEO
48935,SPACEBEE-88,2021,90.22,2.0,+,97.54,Active,1,LEO,USA,USA,Commercial,Communications,Falcon,1 48935U 21059BJ  23051.37327135  .02511959  56973-2  46938-2 0  9994,2 48935  97.5341 195.5593 0018277 305.1057  54.8507 16.02096925 92227,16.02096925,0.0018277,LEO
48936,SPACEBEE-99,2021,92.66,2.0,+,97.56,Active,1,LEO,USA,USA,Commercial,Communications,Falcon,1 48936U 21059BK  23051.36984294  .00205609  00000+0  30341-2 0  9997,2 48936  97.5568 192.8073 0015007 292.0828  67.8832 15.54527700 92030,15.545277,0.0015007,LEO
48937,SPACEBEE-94,2021,91.99,2.0,+,97.55,Active,1,LEO,USA,USA,Commercial,Communications,Falcon,1 48937U 21059BL  23051.36195893  .00395967  00000+0  36510-2 0  9998,2 48937  97.5489 193.7960 0017135 293.2315  66.7140 15.66228885 92109,15.66228885,0.0017135,LEO
48938,SHANNON,2021,94.73,30.0,+,97.58,Active,1,LEO,USA,USA,Commercial,Communications,Falcon,1 48938U 21059BM  23051.31184465  .00013161  00000+0  61093-3 0  9995,2 48938  97.5813 186.5424 0014903 324.6402  35.3843 15.20058937 91573,15.20058937,0.0014903,LEO
48939,SPACEBEE-93,2021,90.95,2.0,+,97.54,Active,1,LEO,USA,USA,Commercial,Communications,Falcon,1 48939U 21059BN  23051.37217234  .01036369  43067-3  43550-2 0  9990,2 48939  97.5424 195.0031 0019697 297.2115  62.7147 15.85261489 92180,15.85261489,0.0019697,LEO
48940,SPACEBEE-91,2021,91.39,2.0,+,97.55,Active,1,LEO,USA,USA,Commercial,Communications,Falcon,1 48940U 21059BP  23051.38995458  .00726317  00000+0  41124-2 0  9993,2 48940  97.5457 194.8382 0015043 294.4140  65.5555 15.77013146 92171,15.77013146,0.0015043,LEO
48941,SHERPA-LTE1,2021,93.42,-1.0,+,97.58,Active,0,LEO,USA,USA,Unknown,Unknown,Falcon,1 48941U 21059BQ  23051.32843056  .00020218  00000+0  48346-3 0  9995,2 48941  97.5765 195.5669 0003100 312.4563  47.6421 15.41514127 92170,15.41514127,0.00031,LEO
48942,KSF1-C,2021,94.35,10.0,+,97.58,Active,1,LEO,USA,Luxembourg,Commercial,Earth Observation,Falcon,1 48942U 21059BR  23050.85623780  .00042549  00000+0  16346-2 0  9998,2 48942  97.5804 188.0669 0013959 314.9838 196.3879 15.26221021 91615,15.26221021,0.0013959,LEO
48943,QMR-KWT,2021,94.66,1.0,+,97.58,Active,1,LEO,USA,Unknown,Civil,Communications,Falcon,1 48943U 21059BS  23050.30670349  .00019396  00000+0  86851-3 0  9995,2 48943  97.5775 185.2362 0007894 325.0666  35.0051 15.21279355 91412,15.21279355,0.0007894,LEO
48944,AYAN-21,2021,94.58,-1.0,+,97.58,Active,0,LEO,USA,Rwanda,Unknown,Unknown,Falcon,1 48944U 21059BT  23050.85537562  .00019270  00000+0  83168-3 0  9994,2 48944  97.5765 186.7628 0013362 312.6113  47.3995 15.22485994 91556,15.22485994,0.0013362,LEO
48945,SPACEBEE-95,2021,92.05,2.0,+,97.55,Active,1,LEO,USA,USA,Commercial,Communications,Falcon,1 48945U 21059BU  23050.92684663  .00373338  00000+0  36636-2 0  9993,2 48945  97.5515 193.5200 0013649 287.5594  72.4173 15.64788259 92041,15.64788259,0.0013649,LEO
48946,SPACEBEE-97,2021,92.55,2.0,+,97.55,Active,1,LEO,USA,USA,Commercial,Communications,Falcon,1 48946U 21059BV  23051.32243295  .00232230  00000+0  31908-2 0  9993,2 48946  97.5543 192.9972 0014126 293.1127  66.8638 15.56400887 92040,15.56400887,0.0014126,LEO
48947,SPACEBEE-90,2021,91.23,2.0,+,97.55,Active,1,LEO,USA,USA,Commercial,Communications,Falcon,1 48947U 21059BW  23051.32945000  .00945781  00000+0  45806-2 0  9991,2 48947  97.5452 194.9108 0016596 297.4234  62.5344 15.79944214 92175,15.79944214,0.0016596,LEO
48948,HAWK-3C,2021,94.86,15.0,+,97.59,Active,1,LEO,USA,USA,Commercial,Surveillance,Falcon,1 48948U 21059BX  23050.94604113  .00007480  00000+0  36896-3 0  9991,2 48948  97.5916 186.4286 0015552 335.0051  25.0428 15.18106832 91480,15.18106832,0.0015552,LEO
48949,SPACEBEE-98,2021,92.55,2.0,+,97.56,Active,1,LEO,USA,USA,Commercial,Communications,Falcon,1 48949U 21059BY  23051.11484869  .00230964  00000+0  31863-2 0  9999,2 48949  97.5621 192.9293 0015034 290.6965  69.2677 15.56280356 92011,15.56280356,0.0015034,LEO
48950,KSF1-D,2021,94.07,10.0,+,97.58,Active,1,LEO,USA,Luxembourg,Commercial,Earth Observation,Falcon,1 48950U 21059BZ  23051.58518581  .00055362  00000+0  18316-2 0  9996,2 48950  97.5823 189.3586 0019557 303.3765 118.0398 15.30958766 91792,15.30958766,0.0019557,LEO
48951,DEMO8 (TENZING),2021,94.91,35.0,+,97.58,Active,1,LEO,USA,USA,Commercial,Technology Development,Falcon,1 48951U 21059CA  23050.95575237  .00006434  00000+0  32538-3 0  9997,2 48951  97.5848 185.4721 0015352 331.7849  28.2550 15.17294724 91463,15.17294724,0.0015352,LEO
48952,ASTROCAST-0204,2021,94.79,4.0,+,97.58,Active,1,LEO,USA,Switzerland,Commercial,Communications,Falcon,1 48952U 21059CB  23050.62383374  .00009562  00000+0  45723-3 0  9996,2 48952  97.5832 185.8655 0014644 322.7473  37.2744 15.19122041 91462,15.19122041,0.0014644,LEO
48953,ARTHUR-1,2021,94.75,20.0,+,97.58,Active,1,LEO,USA,Belgium,Commercial,Earth Observation,Falcon,1 48953U 21059CC  23051.16096356  .00013781  00000+0  64554-3 0  9999,2 48953  97.5782 186.4878 0013122 324.5625 159.8455 15.19754804 91569,15.19754804,0.0013122,LEO
48954,ASTROCAST-0201,2021,94.86,4.0,+,97.58,Active,1,LEO,USA,Switzerland,Commercial,Communications,Falcon,1 48954U 21059CD  23051.31217795  .00020180  00000+0  98877-3 0  9995,2 48954  97.5755 185.8003 0011596 328.7023  31.3519 15.18123959 91536,15.18123959,0.0011596,LEO
48955,ASTROCAST-0203,2021,94.86,4.0,+,97.57,Active,1,LEO,USA,Switzerland,Commercial,Communications,Falcon,1 48955U 21059CE  23050.34489228  .00012324  00000+0  60567-3 0  9996,2 48955  97.5723 184.5575 0014589 329.0172  31.0200 15.18097727 91386,15.18097727,0.0014589,LEO
48956,DEMO9 (AURORA),2021,94.82,-1.0,+,97.58,Active,0,LEO,USA,USA,Unknown,Unknown,Unknown,1 48956U 21059CF  23051.32373064  .00010396  00000+0  50192-3 0  9996,2 48956  97.5826 186.2579 0015526 323.5445  36.4731 15.18751619 91552,15.18751619,0.0015526,LEO
48957,HAWK-3A,2021,94.86,15.0,+,97.58,Active,1,LEO,USA,USA,Commercial,Surveillance,Falcon,1 48957U 21059CG  23050.81404928  .00007535  00000+0  37163-3 0  9998,2 48957  97.5789 185.3561 0015513 329.8294  30.2045 15.18108568 91468,15.18108568,0.0015513,LEO
48958,SHERPA-FX2 & TAGSAT-2,2021,94.88,-1.0,+,97.58,Active,0,LEO,USA,USA,Unknown,Unknown,Unknown,1 48958U 21059CH  23051.37925181  .00007737  00000+0  38627-3 0  9990,2 48958  97.5827 186.0671 0015493 325.3851  34.6373 15.17674122 91543,15.17674122,0.0015493,LEO
48959,LEMUR-2-CARLSANTAMARI,2021,93.81,10.0,+,97.57,Active,1,LEO,USA,USA,Commercial,Earth Observation,Falcon,1 48959U 21059CJ  23051.31158059  .00060950  00000+0  17735-2 0  9999,2 48959  97.5743 189.6756 0012886 303.6000  56.4012 15.35130041 91800,15.35130041,0.0012886,LEO
48960,ASTROCAST-0205,2021,94.85,4.0,+,97.57,Active,1,LEO,USA,Switzerland,Commercial,Communications,Falcon,1 48960U 21059CK  23051.35429618  .00009750  00000+0  47898-3 0  9992,2 48960  97.5752 185.8307 0012693 313.4828  46.5350 15.18197115 91547,15.18197115,0.0012693,LEO
48961,ASTROCAST-0202,2021,94.8,4.0,+,97.58,Active,1,LEO,USA,Switzerland,Commercial,Communications,Falcon,1 48961U 21059CL  23051.24994251  .00008107  00000+0  38907-3 0  9997,2 48961  97.5763 186.5420 0012933 319.7812  40.2464 15.19067529 91579,15.19067529,0.0012933,LEO
48962,GHALIB,2021,94.59,3.0,+,97.58,Active,1,LEO,USA,UAE,Government,Earth Observation,Falcon,1 48962U 21059CM  23050.61657955  .00023484  00000+0  10179-2 0  9990,2 48962  97.5757 185.6857 0008267 321.5445  38.5201 15.22348240 91479,15.2234824,0.0008267,LEO
48963,NAPA-2,2021,95.02,10.0,+,97.58,Active,1,LEO,USA,Thailand,Military,Earth Observation,Falcon,1 48963U 21059CN  23051.19831315  .00009982  00000+0  52856-3 0  9995,2 48963  97.5758 183.7125 0012555 322.4792 157.6176 15.15554432 91397,15.15554432,0.0012555,LEO
